{
  "type": "FeatureCollection",
  "features": [
    {
      "type": "Feature",
      "properties": {
        "norad_id": 34615,
        "name": "COSMOS 2251 DEB",
        "group": "cosmos-2251-debris",
        "lat": 39.64891341007767,
        "lon": 94.10852544589682,
        "alt_km": 885.5211660379937,
        "timestamp": "2025-12-16T15:45:51.440626+00:00",
        "meta_object_name": "COSMOS 2251 DEB",
        "meta_object_id": "1993-036WL",
        "meta_epoch": "2025-12-15T19:40:39.231264",
        "meta_mean_motion": 13.5220348,
        "meta_eccentricity": 0.04009521,
        "meta_inclination": 74.0048,
        "meta_ra_of_asc_node": 289.2009,
        "meta_arg_of_pericenter": 195.784,
        "meta_mean_anomaly": 193.6017,
        "meta_ephemeris_type": 0,
        "meta_classification_type": "U",
        "meta_norad_cat_id": 34615,
        "meta_element_set_no": 999,
        "meta_rev_at_epoch": 82857,
        "meta_bstar": 7.6517013e-05,
        "meta_mean_motion_dot": 6.2e-07,
        "meta_mean_motion_ddot": 0,
        "tle_line1": "1 34615U 93036WL  25349.81989851  .00000062  00000+0  76517-4 0  9999",
        "tle_line2": "2 34615  74.0048 289.2009 0400952 195.7840 193.6017 13.52203480828573"
      },
      "geometry": {
        "type": "Point",
        "coordinates": [
          94.10852544589682,
          39.64891341007767
        ]
      }
    },
    {
      "type": "Feature",
      "properties": {
        "norad_id": 34619,
        "name": "COSMOS 2251 DEB",
        "group": "cosmos-2251-debris",
        "lat": -12.979906956784587,
        "lon": 16.194442683505947,
        "alt_km": 685.1394650414359,
        "timestamp": "2025-12-16T15:45:51.440636+00:00",
        "meta_object_name": "COSMOS 2251 DEB",
        "meta_object_id": "1993-036WQ",
        "meta_epoch": "2025-12-14T23:31:53.827104",
        "meta_mean_motion": 14.64650501,
        "meta_eccentricity": 0.00947397,
        "meta_inclination": 74.0432,
        "meta_ra_of_asc_node": 195.6334,
        "meta_arg_of_pericenter": 289.9742,
        "meta_mean_anomaly": 69.1242,
        "meta_ephemeris_type": 0,
        "meta_classification_type": "U",
        "meta_norad_cat_id": 34619,
        "meta_element_set_no": 999,
        "meta_rev_at_epoch": 89331,
        "meta_bstar": 0.00021494476,
        "meta_mean_motion_dot": 1.186e-05,
        "meta_mean_motion_ddot": 0,
        "tle_line1": "1 34619U 93036WQ  25348.98048411  .00001186  00000+0  21494-3 0  9999",
        "tle_line2": "2 34619  74.0432 195.6334 0094739 289.9742  69.1242 14.64650501893319"
      },
      "geometry": {
        "type": "Point",
        "coordinates": [
          16.194442683505947,
          -12.979906956784587
        ]
      }
    },
    {
      "type": "Feature",
      "properties": {
        "norad_id": 34620,
        "name": "COSMOS 2251 DEB",
        "group": "cosmos-2251-debris",
        "lat": -31.963700219520355,
        "lon": 42.471780580731526,
        "alt_km": 686.8437546126224,
        "timestamp": "2025-12-16T15:45:51.440647+00:00",
        "meta_object_name": "COSMOS 2251 DEB",
        "meta_object_id": "1993-036WR",
        "meta_epoch": "2025-12-15T17:14:17.657088",
        "meta_mean_motion": 14.4915244,
        "meta_eccentricity": 0.0080351,
        "meta_inclination": 74.0516,
        "meta_ra_of_asc_node": 213.9511,
        "meta_arg_of_pericenter": 249.6973,
        "meta_mean_anomaly": 109.5539,
        "meta_ephemeris_type": 0,
        "meta_classification_type": "U",
        "meta_norad_cat_id": 34620,
        "meta_element_set_no": 999,
        "meta_rev_at_epoch": 86870,
        "meta_bstar": 0.0012466857,
        "meta_mean_motion_dot": 4.916e-05,
        "meta_mean_motion_ddot": 0,
        "tle_line1": "1 34620U 93036WR  25349.71825992  .00004916  00000+0  12467-2 0  9993",
        "tle_line2": "2 34620  74.0516 213.9511 0080351 249.6973 109.5539 14.49152440868704"
      },
      "geometry": {
        "type": "Point",
        "coordinates": [
          42.471780580731526,
          -31.963700219520355
        ]
      }
    },
    {
      "type": "Feature",
      "properties": {
        "norad_id": 34622,
        "name": "COSMOS 2251 DEB",
        "group": "cosmos-2251-debris",
        "lat": -9.582683176009462,
        "lon": 122.75250829922896,
        "alt_km": 895.8067409907844,
        "timestamp": "2025-12-16T15:45:51.440657+00:00",
        "meta_object_name": "COSMOS 2251 DEB",
        "meta_object_id": "1993-036WT",
        "meta_epoch": "2025-12-15T22:15:38.737152",
        "meta_mean_motion": 14.22059882,
        "meta_eccentricity": 0.01045518,
        "meta_inclination": 74.0423,
        "meta_ra_of_asc_node": 301.2917,
        "meta_arg_of_pericenter": 22.9986,
        "meta_mean_anomaly": 34.4335,
        "meta_ephemeris_type": 0,
        "meta_classification_type": "U",
        "meta_norad_cat_id": 34622,
        "meta_element_set_no": 999,
        "meta_rev_at_epoch": 86505,
        "meta_bstar": 0.00087090113,
        "meta_mean_motion_dot": 2.012e-05,
        "meta_mean_motion_ddot": 0,
        "tle_line1": "1 34622U 93036WT  25349.92753168  .00002012  00000+0  87090-3 0  9993",
        "tle_line2": "2 34622  74.0423 301.2917 0104551  22.9986  34.4335 14.22059882865051"
      },
      "geometry": {
        "type": "Point",
        "coordinates": [
          122.75250829922896,
          -9.582683176009462
        ]
      }
    },
    {
      "type": "Feature",
      "properties": {
        "norad_id": 34626,
        "name": "COSMOS 2251 DEB",
        "group": "cosmos-2251-debris",
        "lat": 0.7369312106633061,
        "lon": -43.51076333711343,
        "alt_km": 642.5843524170268,
        "timestamp": "2025-12-16T15:45:51.440666+00:00",
        "meta_object_name": "COSMOS 2251 DEB",
        "meta_object_id": "1993-036WX",
        "meta_epoch": "2025-12-15T16:05:51.709632",
        "meta_mean_motion": 14.72234946,
        "meta_eccentricity": 0.00267305,
        "meta_inclination": 74.0478,
        "meta_ra_of_asc_node": 318.1949,
        "meta_arg_of_pericenter": 45.5284,
        "meta_mean_anomaly": 131.3038,
        "meta_ephemeris_type": 0,
        "meta_classification_type": "U",
        "meta_norad_cat_id": 34626,
        "meta_element_set_no": 999,
        "meta_rev_at_epoch": 89187,
        "meta_bstar": 0.00068364462,
        "meta_mean_motion_dot": 4.309e-05,
        "meta_mean_motion_ddot": 0,
        "tle_line1": "1 34626U 93036WX  25349.67073738  .00004309  00000+0  68364-3 0  9991",
        "tle_line2": "2 34626  74.0478 318.1949 0026730  45.5284 131.3038 14.72234946891878"
      },
      "geometry": {
        "type": "Point",
        "coordinates": [
          -43.51076333711343,
          0.7369312106633061
        ]
      }
    },
    {
      "type": "Feature",
      "properties": {
        "norad_id": 34634,
        "name": "COSMOS 2251 DEB",
        "group": "cosmos-2251-debris",
        "lat": -61.2464301163022,
        "lon": -3.848433228292672,
        "alt_km": 743.3658583157239,
        "timestamp": "2025-12-16T15:45:51.440676+00:00",
        "meta_object_name": "COSMOS 2251 DEB",
        "meta_object_id": "1993-036XF",
        "meta_epoch": "2025-12-15T08:48:16.328160",
        "meta_mean_motion": 14.55666927,
        "meta_eccentricity": 0.00440003,
        "meta_inclination": 74.053,
        "meta_ra_of_asc_node": 29.9993,
        "meta_arg_of_pericenter": 136.6323,
        "meta_mean_anomaly": 240.1925,
        "meta_ephemeris_type": 0,
        "meta_classification_type": "U",
        "meta_norad_cat_id": 34634,
        "meta_element_set_no": 999,
        "meta_rev_at_epoch": 88820,
        "meta_bstar": 0.00025855618,
        "meta_mean_motion_dot": 1.115e-05,
        "meta_mean_motion_ddot": 0,
        "tle_line1": "1 34634U 93036XF  25349.36685565  .00001115  00000+0  25856-3 0  9994",
        "tle_line2": "2 34634  74.0530  29.9993 0044000 136.6323 240.1925 14.55666927888204"
      },
      "geometry": {
        "type": "Point",
        "coordinates": [
          -3.848433228292672,
          -61.2464301163022
        ]
      }
    },
    {
      "type": "Feature",
      "properties": {
        "norad_id": 34635,
        "name": "COSMOS 2251 DEB",
        "group": "cosmos-2251-debris",
        "lat": -25.302295193324913,
        "lon": 55.373928346730196,
        "alt_km": 690.0388287844753,
        "timestamp": "2025-12-16T15:45:51.440686+00:00",
        "meta_object_name": "COSMOS 2251 DEB",
        "meta_object_id": "1993-036XG",
        "meta_epoch": "2025-12-15T22:41:24.204192",
        "meta_mean_motion": 14.68313353,
        "meta_eccentricity": 0.00282821,
        "meta_inclination": 74.0463,
        "meta_ra_of_asc_node": 64.5203,
        "meta_arg_of_pericenter": 132.1933,
        "meta_mean_anomaly": 42.6522,
        "meta_ephemeris_type": 0,
        "meta_classification_type": "U",
        "meta_norad_cat_id": 34635,
        "meta_element_set_no": 999,
        "meta_rev_at_epoch": 73266,
        "meta_bstar": 0.00076389456,
        "meta_mean_motion_dot": 4.407e-05,
        "meta_mean_motion_ddot": 0,
        "tle_line1": "1 34635U 93036XG  25349.94541903  .00004407  00000+0  76389-3 0  9990",
        "tle_line2": "2 34635  74.0463  64.5203 0028282 132.1933  42.6522 14.68313353732663"
      },
      "geometry": {
        "type": "Point",
        "coordinates": [
          55.373928346730196,
          -25.302295193324913
        ]
      }
    }
  ]
}